{"type":"FeatureCollection","source":"U.S. Census Bureau, 2020 cartographic boundary ZCTAs (cb_2020_us_zcta520_500k), simplified","features":[{"type":"Feature","properties":{"zip":"78722","name":"Cherrywood / French Place","label_lat":30.28915,"label_lng":-97.71501},"geometry":{"type":"Polygon","coordinates":[[[-97.7274,30.28308],[-97.71242,30.30649],[-97.71254,30.3055],[-97.71208,30.30619],[-97.70921,30.30264],[-97.70974,30.29879],[-97.70831,30.2969],[-97.70739,30.29131],[-97.70353,30.28975],[-97.69879,30.29012],[-97.69857,30.28909],[-97.7013,30.28754],[-97.70537,30.28929],[-97.70715,30.2892],[-97.70631,30.28627],[-97.70395,30.28257],[-97.70817,30.28188],[-97.70737,30.28325],[-97.70856,30.28594],[-97.7085,30.28183],[-97.70946,30.2817],[-97.70966,30.28277],[-97.71175,30.28244],[-97.71154,30.2814],[-97.71925,30.28013],[-97.71946,30.28115],[-97.72044,30.28099],[-97.72021,30.27998],[-97.72318,30.27948],[-97.72339,30.28051],[-97.72539,30.28019],[-97.72603,30.28314],[-97.7274,30.28308]]]}},{"type":"Feature","properties":{"zip":"78757","name":"Crestview / Allandale","label_lat":30.34773,"label_lng":-97.73536},"geometry":{"type":"Polygon","coordinates":[[[-97.75528,30.33641],[-97.74961,30.34874],[-97.74884,30.35172],[-97.74799,30.3516],[-97.74342,30.3613],[-97.74398,30.3613],[-97.74192,30.36793],[-97.74084,30.36745],[-97.73618,30.37868],[-97.72043,30.37044],[-97.71876,30.36836],[-97.71738,30.36323],[-97.71922,30.3628],[-97.7191,30.36107],[-97.71675,30.36041],[-97.71582,30.35694],[-97.71852,30.35464],[-97.71539,30.35216],[-97.71767,30.34991],[-97.71398,30.34801],[-97.71308,30.34684],[-97.71735,30.34016],[-97.71871,30.34088],[-97.72055,30.34082],[-97.72192,30.34719],[-97.72251,30.34711],[-97.72164,30.34267],[-97.7227,30.3409],[-97.72097,30.34026],[-97.7215,30.33765],[-97.71955,30.3367],[-97.72371,30.33012],[-97.72483,30.33067],[-97.7276,30.32853],[-97.73112,30.33168],[-97.73135,30.33128],[-97.73457,30.33231],[-97.74051,30.33501],[-97.74164,30.33625],[-97.74191,30.3351],[-97.74558,30.33581],[-97.75119,30.33451],[-97.75528,30.33641]]]}},{"type":"Feature","properties":{"zip":"78752","name":"St. John / Highland","label_lat":30.33284,"label_lng":-97.70934},"geometry":{"type":"Polygon","coordinates":[[[-97.7276,30.32853],[-97.72483,30.33067],[-97.72371,30.33012],[-97.71955,30.3367],[-97.7215,30.33765],[-97.72097,30.34026],[-97.7227,30.3409],[-97.72164,30.34267],[-97.72251,30.34711],[-97.72192,30.34719],[-97.72055,30.34082],[-97.71871,30.34088],[-97.71735,30.34016],[-97.71244,30.34781],[-97.70916,30.34639],[-97.70834,30.34753],[-97.70571,30.34639],[-97.70665,30.34503],[-97.70362,30.3428],[-97.70265,30.3435],[-97.70199,30.34269],[-97.70123,30.34358],[-97.69858,30.3422],[-97.70055,30.33957],[-97.69531,30.33707],[-97.69256,30.33852],[-97.69318,30.33604],[-97.68622,30.33284],[-97.68015,30.33347],[-97.67998,30.33241],[-97.67917,30.33257],[-97.67707,30.3352],[-97.67741,30.3341],[-97.67583,30.33319],[-97.67829,30.32925],[-97.67889,30.32922],[-97.67323,30.32572],[-97.68089,30.3232],[-97.6825,30.32451],[-97.68457,30.32301],[-97.68429,30.32197],[-97.68488,30.32186],[-97.68908,30.32149],[-97.69414,30.32295],[-97.69364,30.32399],[-97.69525,30.32445],[-97.69805,30.32391],[-97.69849,30.32221],[-97.69505,30.32187],[-97.69539,30.32147],[-97.70616,30.3223],[-97.71276,30.32043],[-97.71537,30.32042],[-97.72456,30.32392],[-97.72712,30.32674],[-97.7276,30.32853]]]}},{"type":"Feature","properties":{"zip":"78756","name":"Brentwood","label_lat":30.32582,"label_lng":-97.73828},"geometry":{"type":"Polygon","coordinates":[[[-97.74975,30.3345],[-97.74558,30.33581],[-97.74191,30.3351],[-97.74164,30.33625],[-97.74051,30.33501],[-97.73457,30.33231],[-97.73135,30.33128],[-97.73112,30.33168],[-97.72796,30.32904],[-97.72633,30.32596],[-97.72662,30.3255],[-97.72819,30.32582],[-97.73118,30.32194],[-97.73186,30.32226],[-97.73354,30.31941],[-97.73113,30.31827],[-97.73145,30.31776],[-97.73218,30.3167],[-97.73597,30.31526],[-97.74311,30.3052],[-97.748,30.30722],[-97.74884,30.30896],[-97.74929,30.32072],[-97.7455,30.32041],[-97.7461,30.32614],[-97.74689,30.32714],[-97.74636,30.33042],[-97.74897,30.33293],[-97.74975,30.3345]]]}},{"type":"Feature","properties":{"zip":"78758","name":"North Burnet / The Domain","label_lat":30.38481,"label_lng":-97.71094},"geometry":{"type":"Polygon","coordinates":[[[-97.73618,30.37868],[-97.72868,30.39603],[-97.72785,30.3997],[-97.72805,30.40209],[-97.72515,30.40434],[-97.72384,30.40336],[-97.72157,30.4054],[-97.72113,30.40418],[-97.71891,30.40471],[-97.71997,30.40061],[-97.71866,30.40023],[-97.71569,30.40573],[-97.71609,30.40906],[-97.71094,30.41089],[-97.7101,30.41592],[-97.70519,30.42103],[-97.69325,30.4145],[-97.67817,30.4079],[-97.6794,30.39915],[-97.68173,30.4009],[-97.68174,30.39822],[-97.68005,30.39729],[-97.68103,30.39525],[-97.68052,30.39512],[-97.68084,30.39434],[-97.68283,30.39299],[-97.68787,30.38574],[-97.685,30.3845],[-97.68637,30.38193],[-97.6919,30.38432],[-97.69351,30.38238],[-97.68768,30.37954],[-97.69301,30.37017],[-97.69476,30.37107],[-97.69549,30.37073],[-97.69842,30.36599],[-97.69963,30.36655],[-97.69867,30.36558],[-97.69893,30.3641],[-97.69984,30.36453],[-97.69899,30.36401],[-97.70117,30.36186],[-97.70145,30.35831],[-97.70011,30.35765],[-97.70407,30.35452],[-97.70689,30.35611],[-97.70862,30.35495],[-97.70564,30.35335],[-97.71049,30.35006],[-97.71308,30.34684],[-97.71398,30.34801],[-97.71767,30.34991],[-97.71539,30.35216],[-97.71852,30.35464],[-97.71582,30.35694],[-97.71675,30.36041],[-97.7191,30.36107],[-97.71922,30.3628],[-97.71738,30.36323],[-97.71876,30.36836],[-97.72043,30.37044],[-97.73618,30.37868]]]}},{"type":"Feature","properties":{"zip":"78704","name":"South Congress / Bouldin","label_lat":30.24473,"label_lng":-97.75928},"geometry":{"type":"Polygon","coordinates":[[[-97.80094,30.24526],[-97.79731,30.24489],[-97.79319,30.24294],[-97.79219,30.24184],[-97.78981,30.24214],[-97.78882,30.24365],[-97.78957,30.24646],[-97.79217,30.24783],[-97.79673,30.24829],[-97.79572,30.25343],[-97.78458,30.2581],[-97.78433,30.25954],[-97.78541,30.26061],[-97.78073,30.2626],[-97.76761,30.2641],[-97.76066,30.26753],[-97.74433,30.26119],[-97.74281,30.25971],[-97.74098,30.25479],[-97.73826,30.25184],[-97.73599,30.25061],[-97.73504,30.24496],[-97.74746,30.2233],[-97.74391,30.21963],[-97.74397,30.21633],[-97.75129,30.21657],[-97.75192,30.21561],[-97.76969,30.22368],[-97.76999,30.22567],[-97.76947,30.22652],[-97.77233,30.22753],[-97.77949,30.22768],[-97.78017,30.22659],[-97.7814,30.22747],[-97.78447,30.22775],[-97.79002,30.23035],[-97.79087,30.22899],[-97.79281,30.22991],[-97.79196,30.23127],[-97.79621,30.23334],[-97.79791,30.23552],[-97.80249,30.24469],[-97.80094,30.24526]]]}},{"type":"Feature","properties":{"zip":"78751","name":"Hyde Park","label_lat":30.31136,"label_lng":-97.722},"geometry":{"type":"Polygon","coordinates":[[[-97.73764,30.30349],[-97.73298,30.31084],[-97.73757,30.31346],[-97.73597,30.31526],[-97.73218,30.3167],[-97.73113,30.31827],[-97.73354,30.31941],[-97.73186,30.32226],[-97.73118,30.32194],[-97.72819,30.32582],[-97.72662,30.3255],[-97.72633,30.32596],[-97.72456,30.32392],[-97.71537,30.32042],[-97.71243,30.3205],[-97.70686,30.3222],[-97.7079,30.31522],[-97.70943,30.31135],[-97.72013,30.29428],[-97.72272,30.29596],[-97.73395,30.30072],[-97.73364,30.30106],[-97.73764,30.30349]]]}},{"type":"Feature","properties":{"zip":"78705","name":"West Campus / UT","label_lat":30.29806,"label_lng":-97.74079},"geometry":{"type":"Polygon","coordinates":[[[-97.75331,30.28869],[-97.751,30.29201],[-97.74739,30.29277],[-97.74992,30.29795],[-97.74911,30.29886],[-97.74711,30.29948],[-97.75009,30.30267],[-97.74759,30.30562],[-97.748,30.30722],[-97.74311,30.3052],[-97.73757,30.31346],[-97.73298,30.31084],[-97.73764,30.30349],[-97.73364,30.30106],[-97.73395,30.30072],[-97.72272,30.29596],[-97.72013,30.29428],[-97.72508,30.28656],[-97.73092,30.28921],[-97.73346,30.28917],[-97.7341,30.28818],[-97.73474,30.29096],[-97.73602,30.29318],[-97.73658,30.29165],[-97.73893,30.29182],[-97.73953,30.28753],[-97.74135,30.28981],[-97.7422,30.28948],[-97.74142,30.28908],[-97.74191,30.2838],[-97.73743,30.28347],[-97.73702,30.28735],[-97.73353,30.28706],[-97.73405,30.28321],[-97.73355,30.28085],[-97.73571,30.27998],[-97.74518,30.28266],[-97.74506,30.28404],[-97.74662,30.28414],[-97.74674,30.2831],[-97.75212,30.28361],[-97.75077,30.28195],[-97.75043,30.28056],[-97.75091,30.27999],[-97.7513,30.28242],[-97.75448,30.28452],[-97.75331,30.28869]]]}},{"type":"Feature","properties":{"zip":"78702","name":"East Austin","label_lat":30.26574,"label_lng":-97.71173},"geometry":{"type":"Polygon","coordinates":[[[-97.73717,30.25914],[-97.73005,30.27851],[-97.72514,30.27911],[-97.72539,30.28019],[-97.72339,30.28051],[-97.72318,30.27948],[-97.72021,30.27998],[-97.72044,30.28099],[-97.71946,30.28115],[-97.71925,30.28013],[-97.71154,30.2814],[-97.71175,30.28244],[-97.70966,30.28277],[-97.70946,30.2817],[-97.7085,30.28183],[-97.70856,30.28594],[-97.70737,30.28325],[-97.70817,30.28188],[-97.70171,30.28291],[-97.70142,30.28139],[-97.70304,30.28115],[-97.69844,30.27466],[-97.69627,30.2681],[-97.69436,30.26743],[-97.69551,30.26561],[-97.69386,30.26009],[-97.69098,30.25852],[-97.6925,30.25509],[-97.69249,30.25077],[-97.69106,30.24945],[-97.69172,30.2481],[-97.69128,30.24518],[-97.69485,30.24532],[-97.69958,30.24691],[-97.70188,30.2502],[-97.70528,30.25061],[-97.71351,30.25043],[-97.72376,30.2466],[-97.72978,30.24811],[-97.73599,30.25061],[-97.73717,30.25914]]]}},{"type":"Feature","properties":{"zip":"78731","name":"Northwest Hills","label_lat":30.35128,"label_lng":-97.7698},"geometry":{"type":"Polygon","coordinates":[[[-97.79683,30.34999],[-97.79135,30.35929],[-97.78943,30.36815],[-97.79084,30.36892],[-97.79032,30.36967],[-97.79496,30.37191],[-97.79444,30.37269],[-97.78815,30.36975],[-97.78467,30.37266],[-97.78373,30.3776],[-97.7816,30.3788],[-97.77827,30.37806],[-97.7745,30.38118],[-97.77142,30.38276],[-97.77152,30.38566],[-97.77323,30.38709],[-97.77493,30.39039],[-97.7738,30.39082],[-97.77172,30.38972],[-97.77018,30.38433],[-97.77049,30.3832],[-97.767,30.38119],[-97.76659,30.3772],[-97.76809,30.37563],[-97.76827,30.37385],[-97.76909,30.37272],[-97.76821,30.37086],[-97.76171,30.36893],[-97.76055,30.37065],[-97.75726,30.37147],[-97.75819,30.36979],[-97.75654,30.36892],[-97.75682,30.36843],[-97.75842,30.36944],[-97.75935,30.36816],[-97.75526,30.36574],[-97.75412,30.36786],[-97.74638,30.36156],[-97.74342,30.3613],[-97.74799,30.3516],[-97.74884,30.35172],[-97.74961,30.34874],[-97.75528,30.33641],[-97.75119,30.33451],[-97.74975,30.3345],[-97.74897,30.33293],[-97.74636,30.33042],[-97.74689,30.32714],[-97.7461,30.32614],[-97.7455,30.32041],[-97.74929,30.32072],[-97.74884,30.30896],[-97.748,30.30722],[-97.75041,30.30716],[-97.75261,30.3081],[-97.75248,30.30857],[-97.75449,30.30905],[-97.75464,30.30857],[-97.75764,30.30904],[-97.75633,30.31853],[-97.75705,30.32407],[-97.75865,30.326],[-97.76013,30.32555],[-97.76378,30.32735],[-97.7687,30.32105],[-97.764,30.3187],[-97.76728,30.31361],[-97.76904,30.31453],[-97.77383,30.3126],[-97.77588,30.31361],[-97.77607,30.32218],[-97.77975,30.33054],[-97.7883,30.34356],[-97.79683,30.34999]]]}},{"type":"Feature","properties":{"zip":"78701","name":"Downtown","label_lat":30.27,"label_lng":-97.74216},"geometry":{"type":"Polygon","coordinates":[[[-97.75159,30.26757],[-97.75059,30.2703],[-97.75126,30.27054],[-97.75085,30.2716],[-97.752,30.27422],[-97.75017,30.27649],[-97.75111,30.27858],[-97.75043,30.28056],[-97.75077,30.28195],[-97.75212,30.28361],[-97.74674,30.2831],[-97.74662,30.28414],[-97.74506,30.28404],[-97.74518,30.28266],[-97.73571,30.27998],[-97.73601,30.27599],[-97.73152,30.27473],[-97.73717,30.25914],[-97.73599,30.25061],[-97.73826,30.25184],[-97.74098,30.25479],[-97.74281,30.25971],[-97.74433,30.26119],[-97.75204,30.26419],[-97.75118,30.26528],[-97.75384,30.26609],[-97.75159,30.26757]]]}},{"type":"Feature","properties":{"zip":"78703","name":"Clarksville / Tarrytown","label_lat":30.29355,"label_lng":-97.76874},"geometry":{"type":"Polygon","coordinates":[[[-97.78592,30.29751],[-97.77788,30.30831],[-97.77588,30.31361],[-97.77383,30.3126],[-97.76904,30.31453],[-97.76728,30.31361],[-97.764,30.3187],[-97.7687,30.32105],[-97.76378,30.32735],[-97.76013,30.32555],[-97.75865,30.326],[-97.75705,30.32407],[-97.75633,30.31853],[-97.75764,30.30904],[-97.75464,30.30857],[-97.75449,30.30905],[-97.75248,30.30857],[-97.75261,30.3081],[-97.75041,30.30716],[-97.748,30.30722],[-97.74759,30.30562],[-97.75009,30.30267],[-97.74711,30.29948],[-97.74911,30.29886],[-97.74992,30.29795],[-97.74739,30.29277],[-97.751,30.29201],[-97.75331,30.28869],[-97.75448,30.28452],[-97.7513,30.28242],[-97.75077,30.2805],[-97.75111,30.27858],[-97.75017,30.27649],[-97.752,30.27422],[-97.75085,30.2716],[-97.75126,30.27054],[-97.75059,30.2703],[-97.75159,30.26757],[-97.75384,30.26609],[-97.75118,30.26528],[-97.75204,30.26419],[-97.76968,30.27162],[-97.78427,30.28431],[-97.78537,30.28642],[-97.78592,30.29751]]]}},{"type":"Feature","properties":{"zip":"78748","name":"Slaughter Lane / Shady Hollow","label_lat":30.16476,"label_lng":-97.83292},"geometry":{"type":"Polygon","coordinates":[[[-97.86197,30.14632],[-97.86,30.1457],[-97.85925,30.14747],[-97.85486,30.14848],[-97.85989,30.15713],[-97.86019,30.16413],[-97.86015,30.16846],[-97.85499,30.17541],[-97.85932,30.17574],[-97.8584,30.17738],[-97.85932,30.17846],[-97.85324,30.17824],[-97.84235,30.19534],[-97.83047,30.19004],[-97.82746,30.18798],[-97.82535,30.19033],[-97.82257,30.18891],[-97.82291,30.18836],[-97.81843,30.18676],[-97.81958,30.18489],[-97.8186,30.18443],[-97.8174,30.18645],[-97.8155,30.18557],[-97.79437,30.18537],[-97.79267,30.18388],[-97.79307,30.18336],[-97.79264,30.18294],[-97.78198,30.1834],[-97.78528,30.17295],[-97.78964,30.17431],[-97.79096,30.16726],[-97.78594,30.16697],[-97.78932,30.16015],[-97.79591,30.14006],[-97.80435,30.11863],[-97.81325,30.09868],[-97.82077,30.1041],[-97.81863,30.10396],[-97.81778,30.10516],[-97.81771,30.10237],[-97.8146,30.10191],[-97.8114,30.10631],[-97.81174,30.12544],[-97.81249,30.12761],[-97.81187,30.13066],[-97.81041,30.13325],[-97.80708,30.13285],[-97.80638,30.13536],[-97.80155,30.14283],[-97.81082,30.14461],[-97.81319,30.14218],[-97.81434,30.1419],[-97.81896,30.14187],[-97.82323,30.1407],[-97.83779,30.14045],[-97.84378,30.1427],[-97.84397,30.1436],[-97.84699,30.14444],[-97.84694,30.14258],[-97.84749,30.14203],[-97.84661,30.14103],[-97.85072,30.13959],[-97.8574,30.14122],[-97.86095,30.14316],[-97.86174,30.14408],[-97.86197,30.14632]]]}},{"type":"Feature","properties":{"zip":"78723","name":"Windsor Park / Mueller","label_lat":30.30374,"label_lng":-97.68298},"geometry":{"type":"Polygon","coordinates":[[[-97.71254,30.3055],[-97.70943,30.31135],[-97.7079,30.31522],[-97.70686,30.3222],[-97.69539,30.32147],[-97.69505,30.32187],[-97.69849,30.32221],[-97.69805,30.32391],[-97.69525,30.32445],[-97.69364,30.32399],[-97.69414,30.32295],[-97.68908,30.32149],[-97.68488,30.32186],[-97.68429,30.32197],[-97.68457,30.32301],[-97.6825,30.32451],[-97.68089,30.3232],[-97.67323,30.32572],[-97.66424,30.31834],[-97.66302,30.3161],[-97.66071,30.30513],[-97.66084,30.30262],[-97.66526,30.28562],[-97.67251,30.28681],[-97.69609,30.28373],[-97.69804,30.28412],[-97.69772,30.28351],[-97.69838,30.28395],[-97.70395,30.28257],[-97.70631,30.28627],[-97.70715,30.2892],[-97.70537,30.28929],[-97.7013,30.28754],[-97.69857,30.28909],[-97.69879,30.29012],[-97.70353,30.28975],[-97.70739,30.29131],[-97.70831,30.2969],[-97.70974,30.29879],[-97.70921,30.30264],[-97.71208,30.30619],[-97.71254,30.3055]]]}},{"type":"Feature","properties":{"zip":"78741","name":"East Riverside","label_lat":30.23125,"label_lng":-97.71015},"geometry":{"type":"Polygon","coordinates":[[[-97.75142,30.21635],[-97.74397,30.21633],[-97.74391,30.21963],[-97.74746,30.2233],[-97.73504,30.24496],[-97.73599,30.25061],[-97.72978,30.24811],[-97.72376,30.2466],[-97.71351,30.25043],[-97.70188,30.2502],[-97.69958,30.24691],[-97.69485,30.24532],[-97.69128,30.24518],[-97.69038,30.24235],[-97.68953,30.24145],[-97.68905,30.24186],[-97.68791,30.24035],[-97.67917,30.22399],[-97.67661,30.22235],[-97.67967,30.22333],[-97.68204,30.22292],[-97.69037,30.21792],[-97.68992,30.2169],[-97.69417,30.21427],[-97.69491,30.21323],[-97.69897,30.21261],[-97.7004,30.21175],[-97.70613,30.21184],[-97.70964,30.21072],[-97.71166,30.21081],[-97.71261,30.21149],[-97.71251,30.21243],[-97.7164,30.21306],[-97.73508,30.21535],[-97.73573,30.21421],[-97.75192,30.21561],[-97.75142,30.21635]]]}},{"type":"Feature","properties":{"zip":"78745","name":"South Austin / Garrison Park","label_lat":30.20849,"label_lng":-97.80163},"geometry":{"type":"Polygon","coordinates":[[[-97.84905,30.19726],[-97.84528,30.20216],[-97.84355,30.20188],[-97.84311,30.20104],[-97.84128,30.20023],[-97.84052,30.20174],[-97.83883,30.20086],[-97.8372,30.20344],[-97.83778,30.20411],[-97.83689,30.20603],[-97.83591,30.20556],[-97.83199,30.21139],[-97.8342,30.21127],[-97.83228,30.21343],[-97.83109,30.21282],[-97.82527,30.22216],[-97.82906,30.22372],[-97.82475,30.22989],[-97.82352,30.22927],[-97.82057,30.23377],[-97.81834,30.23327],[-97.81842,30.23264],[-97.81151,30.23301],[-97.80709,30.23157],[-97.80353,30.23148],[-97.8031,30.2322],[-97.80673,30.23274],[-97.80575,30.23749],[-97.80821,30.2385],[-97.80739,30.24012],[-97.80814,30.24046],[-97.80587,30.24292],[-97.80249,30.24469],[-97.7969,30.23387],[-97.79196,30.23127],[-97.79281,30.22991],[-97.79087,30.22899],[-97.79002,30.23035],[-97.78447,30.22775],[-97.7814,30.22747],[-97.78017,30.22659],[-97.77949,30.22768],[-97.77233,30.22753],[-97.76947,30.22652],[-97.76999,30.22567],[-97.76969,30.22368],[-97.75192,30.21561],[-97.75835,30.2057],[-97.77234,30.18815],[-97.78625,30.16698],[-97.79096,30.16726],[-97.78964,30.17431],[-97.78528,30.17295],[-97.78198,30.1834],[-97.79264,30.18294],[-97.79307,30.18336],[-97.79267,30.18388],[-97.79437,30.18537],[-97.8155,30.18557],[-97.8174,30.18645],[-97.8186,30.18443],[-97.81958,30.18489],[-97.81843,30.18676],[-97.82291,30.18836],[-97.82257,30.18891],[-97.82535,30.19033],[-97.82746,30.18798],[-97.83047,30.19004],[-97.84436,30.19627],[-97.84739,30.19642],[-97.84905,30.19726]]]}},{"type":"Feature","properties":{"zip":"78721","name":"MLK / Johnston Terrace","label_lat":30.27226,"label_lng":-97.68238},"geometry":{"type":"Polygon","coordinates":[[[-97.70142,30.28139],[-97.70171,30.28291],[-97.69838,30.28395],[-97.69772,30.28351],[-97.69804,30.28412],[-97.69609,30.28373],[-97.67251,30.28681],[-97.66526,30.28562],[-97.67037,30.267],[-97.67821,30.25483],[-97.68327,30.25111],[-97.69106,30.24945],[-97.69249,30.25077],[-97.6925,30.25509],[-97.69098,30.25852],[-97.69386,30.26009],[-97.69551,30.26561],[-97.69436,30.26743],[-97.69627,30.2681],[-97.69844,30.27466],[-97.70304,30.28115],[-97.70142,30.28139]]]}}]}